[{"OBJECT_NAME":"HULIANWANG DIGUI-49","OBJECT_ID":"2025-168A","EPOCH":"2026-03-05T18:56:43.747872","MEAN_MOTION":13.29338837,"ECCENTRICITY":0.000742,"INCLINATION":50.0049,"RA_OF_ASC_NODE":336.8134,"ARG_OF_PERICENTER":153.9733,"MEAN_ANOMALY":206.1513,"EPHEMERIS_TYPE":0,"CLASSIFICATION_TYPE":"U","NORAD_CAT_ID":65106,"ELEMENT_SET_NO":999,"REV_AT_EPOCH":2893,"BSTAR":0.00019257,"MEAN_MOTION_DOT":-3.5e-7,"MEAN_MOTION_DDOT":0},{"OBJECT_NAME":"HULIANWANG DIGUI-50","OBJECT_ID":"2025-168B","EPOCH":"2026-03-05T18:44:37.772736","MEAN_MOTION":13.293395,"ECCENTRICITY":0.0008385,"INCLINATION":50.0019,"RA_OF_ASC_NODE":336.7127,"ARG_OF_PERICENTER":139.9921,"MEAN_ANOMALY":220.157,"EPHEMERIS_TYPE":0,"CLASSIFICATION_TYPE":"U","NORAD_CAT_ID":65107,"ELEMENT_SET_NO":999,"REV_AT_EPOCH":2893,"BSTAR":0.00020047,"MEAN_MOTION_DOT":-3.1e-7,"MEAN_MOTION_DDOT":0},{"OBJECT_NAME":"HULIANWANG DIGUI-51","OBJECT_ID":"2025-168C","EPOCH":"2026-03-05T18:32:35.004768","MEAN_MOTION":13.29339769,"ECCENTRICITY":0.0009742,"INCLINATION":50.0056,"RA_OF_ASC_NODE":336.7389,"ARG_OF_PERICENTER":139.9471,"MEAN_ANOMALY":220.2121,"EPHEMERIS_TYPE":0,"CLASSIFICATION_TYPE":"U","NORAD_CAT_ID":65108,"ELEMENT_SET_NO":999,"REV_AT_EPOCH":2893,"BSTAR":0.00019016,"MEAN_MOTION_DOT":-3.6e-7,"MEAN_MOTION_DDOT":0},{"OBJECT_NAME":"HULIANWANG DIGUI-52","OBJECT_ID":"2025-168D","EPOCH":"2026-03-05T20:08:58.581888","MEAN_MOTION":13.29338399,"ECCENTRICITY":0.000962,"INCLINATION":50.005,"RA_OF_ASC_NODE":336.4088,"ARG_OF_PERICENTER":153.0559,"MEAN_ANOMALY":207.0814,"EPHEMERIS_TYPE":0,"CLASSIFICATION_TYPE":"U","NORAD_CAT_ID":65109,"ELEMENT_SET_NO":999,"REV_AT_EPOCH":2894,"BSTAR":0.00018512,"MEAN_MOTION_DOT":-3.8e-7,"MEAN_MOTION_DDOT":0},{"OBJECT_NAME":"HULIANWANG DIGUI-53","OBJECT_ID":"2025-168E","EPOCH":"2026-03-05T19:56:56.702112","MEAN_MOTION":13.29338257,"ECCENTRICITY":0.0008428,"INCLINATION":50.0057,"RA_OF_ASC_NODE":336.3872,"ARG_OF_PERICENTER":142.7033,"MEAN_ANOMALY":217.4425,"EPHEMERIS_TYPE":0,"CLASSIFICATION_TYPE":"U","NORAD_CAT_ID":65110,"ELEMENT_SET_NO":999,"REV_AT_EPOCH":2894,"BSTAR":0.00017613,"MEAN_MOTION_DOT":-4.2e-7,"MEAN_MOTION_DDOT":0},{"OBJECT_NAME":"HULIANWANG DIGUI-54","OBJECT_ID":"2025-168F","EPOCH":"2026-03-05T19:21:07.376832","MEAN_MOTION":13.29335491,"ECCENTRICITY":0.0010011,"INCLINATION":50.0008,"RA_OF_ASC_NODE":336.1669,"ARG_OF_PERICENTER":148.0104,"MEAN_ANOMALY":212.1377,"EPHEMERIS_TYPE":0,"CLASSIFICATION_TYPE":"U","NORAD_CAT_ID":65111,"ELEMENT_SET_NO":999,"REV_AT_EPOCH":2894,"BSTAR":0.00020188,"MEAN_MOTION_DOT":-3.0e-7,"MEAN_MOTION_DDOT":0},{"OBJECT_NAME":"HULIANWANG DIGUI-55","OBJECT_ID":"2025-168G","EPOCH":"2026-03-05T19:44:48.508224","MEAN_MOTION":13.29338964,"ECCENTRICITY":0.0011302,"INCLINATION":50.0013,"RA_OF_ASC_NODE":336.2605,"ARG_OF_PERICENTER":143.8435,"MEAN_ANOMALY":216.3203,"EPHEMERIS_TYPE":0,"CLASSIFICATION_TYPE":"U","NORAD_CAT_ID":65112,"ELEMENT_SET_NO":999,"REV_AT_EPOCH":2894,"BSTAR":0.00017681,"MEAN_MOTION_DOT":-4.2e-7,"MEAN_MOTION_DDOT":0},{"OBJECT_NAME":"HULIANWANG DIGUI-56","OBJECT_ID":"2025-168H","EPOCH":"2026-03-05T19:32:48.442848","MEAN_MOTION":13.29338337,"ECCENTRICITY":0.0010999,"INCLINATION":50.0005,"RA_OF_ASC_NODE":336.2016,"ARG_OF_PERICENTER":165.8419,"MEAN_ANOMALY":194.2763,"EPHEMERIS_TYPE":0,"CLASSIFICATION_TYPE":"U","NORAD_CAT_ID":65113,"ELEMENT_SET_NO":999,"REV_AT_EPOCH":2894,"BSTAR":0.00017389,"MEAN_MOTION_DOT":-4.3e-7,"MEAN_MOTION_DDOT":0},{"OBJECT_NAME":"HULIANWANG DIGUI-57","OBJECT_ID":"2025-168J","EPOCH":"2026-03-05T19:09:07.760736","MEAN_MOTION":13.29335323,"ECCENTRICITY":0.0008747,"INCLINATION":50.0033,"RA_OF_ASC_NODE":336.1712,"ARG_OF_PERICENTER":156.2485,"MEAN_ANOMALY":203.8792,"EPHEMERIS_TYPE":0,"CLASSIFICATION_TYPE":"U","NORAD_CAT_ID":65114,"ELEMENT_SET_NO":999,"REV_AT_EPOCH":2895,"BSTAR":0.00020192,"MEAN_MOTION_DOT":-3.0e-7,"MEAN_MOTION_DDOT":0},{"OBJECT_NAME":"HULIANWANG DIGUI-58","OBJECT_ID":"2025-174A","EPOCH":"2026-03-05T18:22:12.245664","MEAN_MOTION":13.24421123,"ECCENTRICITY":0.000126,"INCLINATION":86.4926,"RA_OF_ASC_NODE":286.9583,"ARG_OF_PERICENTER":87.9482,"MEAN_ANOMALY":272.1796,"EPHEMERIS_TYPE":0,"CLASSIFICATION_TYPE":"U","NORAD_CAT_ID":65164,"ELEMENT_SET_NO":999,"REV_AT_EPOCH":2710,"BSTAR":7.8456e-5,"MEAN_MOTION_DOT":4.8e-7,"MEAN_MOTION_DDOT":0},{"OBJECT_NAME":"HULIANWANG DIGUI-59","OBJECT_ID":"2025-174B","EPOCH":"2026-03-05T18:33:04.634784","MEAN_MOTION":13.24421322,"ECCENTRICITY":0.0001246,"INCLINATION":86.4886,"RA_OF_ASC_NODE":286.885,"ARG_OF_PERICENTER":87.2183,"MEAN_ANOMALY":272.9094,"EPHEMERIS_TYPE":0,"CLASSIFICATION_TYPE":"U","NORAD_CAT_ID":65165,"ELEMENT_SET_NO":999,"REV_AT_EPOCH":2710,"BSTAR":0.00013478,"MEAN_MOTION_DOT":7.3e-7,"MEAN_MOTION_DDOT":0},{"OBJECT_NAME":"HULIANWANG DIGUI-60","OBJECT_ID":"2025-174C","EPOCH":"2026-03-05T18:43:55.032384","MEAN_MOTION":13.24421528,"ECCENTRICITY":0.000122,"INCLINATION":86.4918,"RA_OF_ASC_NODE":286.952,"ARG_OF_PERICENTER":89.4038,"MEAN_ANOMALY":270.7236,"EPHEMERIS_TYPE":0,"CLASSIFICATION_TYPE":"U","NORAD_CAT_ID":65166,"ELEMENT_SET_NO":999,"REV_AT_EPOCH":2710,"BSTAR":0.00015781,"MEAN_MOTION_DOT":8.2e-7,"MEAN_MOTION_DDOT":0},{"OBJECT_NAME":"HULIANWANG DIGUI-61","OBJECT_ID":"2025-174D","EPOCH":"2026-03-05T18:54:52.736832","MEAN_MOTION":13.24420115,"ECCENTRICITY":0.0001175,"INCLINATION":86.4927,"RA_OF_ASC_NODE":286.9722,"ARG_OF_PERICENTER":88.6392,"MEAN_ANOMALY":271.4877,"EPHEMERIS_TYPE":0,"CLASSIFICATION_TYPE":"U","NORAD_CAT_ID":65167,"ELEMENT_SET_NO":999,"REV_AT_EPOCH":2710,"BSTAR":0.0001959,"MEAN_MOTION_DOT":9.9e-7,"MEAN_MOTION_DDOT":0},{"OBJECT_NAME":"HULIANWANG DIGUI-62","OBJECT_ID":"2025-174E","EPOCH":"2026-03-05T19:05:41.416800","MEAN_MOTION":13.24421448,"ECCENTRICITY":0.0001174,"INCLINATION":86.4868,"RA_OF_ASC_NODE":286.8586,"ARG_OF_PERICENTER":90.8127,"MEAN_ANOMALY":269.3142,"EPHEMERIS_TYPE":0,"CLASSIFICATION_TYPE":"U","NORAD_CAT_ID":65168,"ELEMENT_SET_NO":999,"REV_AT_EPOCH":2710,"BSTAR":0.00019069,"MEAN_MOTION_DOT":9.7e-7,"MEAN_MOTION_DDOT":0},{"OBJECT_NAME":"HULIANWANG DIGUI-63","OBJECT_ID":"2025-174F","EPOCH":"2026-03-05T19:16:32.856384","MEAN_MOTION":13.24421794,"ECCENTRICITY":0.0001193,"INCLINATION":86.4921,"RA_OF_ASC_NODE":286.9658,"ARG_OF_PERICENTER":88.1021,"MEAN_ANOMALY":272.025,"EPHEMERIS_TYPE":0,"CLASSIFICATION_TYPE":"U","NORAD_CAT_ID":65169,"ELEMENT_SET_NO":999,"REV_AT_EPOCH":2710,"BSTAR":0.00014714,"MEAN_MOTION_DOT":7.8e-7,"MEAN_MOTION_DDOT":0},{"OBJECT_NAME":"HULIANWANG DIGUI-64","OBJECT_ID":"2025-174G","EPOCH":"2026-03-05T19:27:25.755264","MEAN_MOTION":13.24421849,"ECCENTRICITY":0.0001185,"INCLINATION":86.488,"RA_OF_ASC_NODE":286.8884,"ARG_OF_PERICENTER":90.7543,"MEAN_ANOMALY":269.3726,"EPHEMERIS_TYPE":0,"CLASSIFICATION_TYPE":"U","NORAD_CAT_ID":65170,"ELEMENT_SET_NO":999,"REV_AT_EPOCH":2710,"BSTAR":0.00012695,"MEAN_MOTION_DOT":6.9e-7,"MEAN_MOTION_DDOT":0}]
