HULIANWANG DIGUI-49     
1 65106U 25168A   26064.78939523 -.00000035  00000+0  19257-3 0  9999
2 65106  50.0049 336.8134 0007420 153.9733 206.1513 13.29338837 28937
HULIANWANG DIGUI-50     
1 65107U 25168B   26064.78099274 -.00000031  00000+0  20047-3 0  9995
2 65107  50.0019 336.7127 0008385 139.9921 220.1570 13.29339500 28937
HULIANWANG DIGUI-51     
1 65108U 25168C   26064.77262737 -.00000036  00000+0  19016-3 0  9990
2 65108  50.0056 336.7389 0009742 139.9471 220.2121 13.29339769 28937
HULIANWANG DIGUI-52     
1 65109U 25168D   26064.83956692 -.00000038  00000+0  18512-3 0  9990
2 65109  50.0050 336.4088 0009620 153.0559 207.0814 13.29338399 28945
HULIANWANG DIGUI-53     
1 65110U 25168E   26064.83121183 -.00000042  00000+0  17613-3 0  9997
2 65110  50.0057 336.3872 0008428 142.7033 217.4425 13.29338257 28947
HULIANWANG DIGUI-54     
1 65111U 25168F   26064.80633538 -.00000030  00000+0  20188-3 0  9995
2 65111  50.0008 336.1669 0010011 148.0104 212.1377 13.29335491 28940
HULIANWANG DIGUI-55     
1 65112U 25168G   26064.82278366 -.00000042  00000+0  17681-3 0  9999
2 65112  50.0013 336.2605 0011302 143.8435 216.3203 13.29338964 28944
HULIANWANG DIGUI-56     
1 65113U 25168H   26064.81444957 -.00000043  00000+0  17389-3 0  9996
2 65113  50.0005 336.2016 0010999 165.8419 194.2763 13.29338337 28948
HULIANWANG DIGUI-57     
1 65114U 25168J   26064.79800649 -.00000030  00000+0  20192-3 0  9990
2 65114  50.0033 336.1712 0008747 156.2485 203.8792 13.29335323 28959
HULIANWANG DIGUI-58     
1 65164U 25174A   26064.76541951  .00000048  00000+0  78456-4 0  9992
2 65164  86.4926 286.9583 0001260  87.9482 272.1796 13.24421123 27104
HULIANWANG DIGUI-59     
1 65165U 25174B   26064.77297031  .00000073  00000+0  13478-3 0  9991
2 65165  86.4886 286.8850 0001246  87.2183 272.9094 13.24421322 27101
HULIANWANG DIGUI-60     
1 65166U 25174C   26064.78049806  .00000082  00000+0  15781-3 0  9997
2 65166  86.4918 286.9520 0001220  89.4038 270.7236 13.24421528 27100
HULIANWANG DIGUI-61     
1 65167U 25174D   26064.78811038  .00000099  00000+0  19590-3 0  9992
2 65167  86.4927 286.9722 0001175  88.6392 271.4877 13.24420115 27108
HULIANWANG DIGUI-62     
1 65168U 25174E   26064.79561825  .00000097  00000+0  19069-3 0  9999
2 65168  86.4868 286.8586 0001174  90.8127 269.3142 13.24421448 27101
HULIANWANG DIGUI-63     
1 65169U 25174F   26064.80315806  .00000078  00000+0  14714-3 0  9999
2 65169  86.4921 286.9658 0001193  88.1021 272.0250 13.24421794 27102
HULIANWANG DIGUI-64     
1 65170U 25174G   26064.81071476  .00000069  00000+0  12695-3 0  9990
2 65170  86.4880 286.8884 0001185  90.7543 269.3726 13.24421849 27105
